[{"CCSDS_OMM_VERS":"2.0","COMMENT":"GENERATED VIA SPACE-TRACK.ORG API","CREATION_DATE":"2021-10-03T04:23:41","ORIGINATOR":"18 SPCS","OBJECT_NAME":"TBA - TO BE ASSIGNED","OBJECT_ID":"","CENTER_NAME":"EARTH","REF_FRAME":"TEME","TIME_SYSTEM":"UTC","MEAN_ELEMENT_THEORY":"SGP4","EPOCH":"2021-10-02T11:08:54.195360","MEAN_MOTION":"11.27726737","ECCENTRICITY":"0.01651354","INCLINATION":"64.8117","RA_OF_ASC_NODE":"196.0430","ARG_OF_PERICENTER":"322.5743","MEAN_ANOMALY":"36.3773","EPHEMERIS_TYPE":"0","CLASSIFICATION_TYPE":"U","NORAD_CAT_ID":"270072","ELEMENT_SET_NO":"999","REV_AT_EPOCH":"7618","BSTAR":"-0.00104985530000","MEAN_MOTION_DOT":"-0.00000080","MEAN_MOTION_DDOT":"0.0000000000000","SEMIMAJOR_AXIS":"8399.742","PERIOD":"127.691","APOAPSIS":"2160.316","PERIAPSIS":"1882.897","OBJECT_TYPE":"TBA","RCS_SIZE":null,"COUNTRY_CODE":null,"LAUNCH_DATE":null,"SITE":null,"DECAY_DATE":null,"FILE":"3141323","GP_ID":"186041785","TLE_LINE0":"0 TBA - TO BE ASSIGNED","TLE_LINE1":"1 T0072U          21275.46451615 -.00000080  00000-0 -10499-2 0  9993","TLE_LINE2":"2 T0072  64.8117 196.0430 0165135 322.5743  36.3773 11.27726737 76182"},{"CCSDS_OMM_VERS":"2.0","COMMENT":"GENERATED VIA SPACE-TRACK.ORG API","CREATION_DATE":"2021-09-27T02:53:51","ORIGINATOR":"18 SPCS","OBJECT_NAME":"TBA - TO BE ASSIGNED","OBJECT_ID":"","CENTER_NAME":"EARTH","REF_FRAME":"TEME","TIME_SYSTEM":"UTC","MEAN_ELEMENT_THEORY":"SGP4","EPOCH":"2021-09-26T12:43:45.489504","MEAN_MOTION":"11.27773459","ECCENTRICITY":"0.01616438","INCLINATION":"64.7993","RA_OF_ASC_NODE":"197.5817","ARG_OF_PERICENTER":"338.1139","MEAN_ANOMALY":"21.2934","EPHEMERIS_TYPE":"0","CLASSIFICATION_TYPE":"U","NORAD_CAT_ID":"270071","ELEMENT_SET_NO":"999","REV_AT_EPOCH":"7558","BSTAR":"0.00085474446000","MEAN_MOTION_DOT":"-0.00000012","MEAN_MOTION_DDOT":"0.0000000000000","SEMIMAJOR_AXIS":"8399.510","PERIOD":"127.685","APOAPSIS":"2157.147","PERIAPSIS":"1885.602","OBJECT_TYPE":"TBA","RCS_SIZE":null,"COUNTRY_CODE":null,"LAUNCH_DATE":null,"SITE":null,"DECAY_DATE":null,"FILE":"3129566","GP_ID":"185571087","TLE_LINE0":"0 TBA - TO BE ASSIGNED","TLE_LINE1":"1 T0071U          21269.53038761 -.00000012  00000-0  85474-3 0  9996","TLE_LINE2":"2 T0071  64.7993 197.5817 0161644 338.1139  21.2934 11.27773459 75588"},{"CCSDS_OMM_VERS":"2.0","COMMENT":"GENERATED VIA SPACE-TRACK.ORG API","CREATION_DATE":"2021-10-03T04:23:41","ORIGINATOR":"18 SPCS","OBJECT_NAME":"TBA - TO BE ASSIGNED","OBJECT_ID":"","CENTER_NAME":"EARTH","REF_FRAME":"TEME","TIME_SYSTEM":"UTC","MEAN_ELEMENT_THEORY":"SGP4","EPOCH":"2021-10-02T12:02:14.738208","MEAN_MOTION":"13.44390276","ECCENTRICITY":"0.07779075","INCLINATION":"62.7922","RA_OF_ASC_NODE":"194.1760","ARG_OF_PERICENTER":"145.5244","MEAN_ANOMALY":"219.8871","EPHEMERIS_TYPE":"0","CLASSIFICATION_TYPE":"U","NORAD_CAT_ID":"270070","ELEMENT_SET_NO":"999","REV_AT_EPOCH":"9089","BSTAR":"0.00007798364400","MEAN_MOTION_DOT":"0.00000170","MEAN_MOTION_DDOT":"0.0000000000000","SEMIMAJOR_AXIS":"7471.107","PERIOD":"107.112","APOAPSIS":"1674.155","PERIAPSIS":"511.789","OBJECT_TYPE":"TBA","RCS_SIZE":null,"COUNTRY_CODE":null,"LAUNCH_DATE":null,"SITE":null,"DECAY_DATE":null,"FILE":"3141323","GP_ID":"186041438","TLE_LINE0":"0 TBA - TO BE ASSIGNED","TLE_LINE1":"1 T0070U          21275.50155947  .00000170  00000-0  77984-4 0  9997","TLE_LINE2":"2 T0070  62.7922 194.1760 0777907 145.5244 219.8871 13.44390276 90898"},{"CCSDS_OMM_VERS":"2.0","COMMENT":"GENERATED VIA SPACE-TRACK.ORG API","CREATION_DATE":"2021-09-21T02:43:14","ORIGINATOR":"18 SPCS","OBJECT_NAME":"TBA - TO BE ASSIGNED","OBJECT_ID":"","CENTER_NAME":"EARTH","REF_FRAME":"TEME","TIME_SYSTEM":"UTC","MEAN_ELEMENT_THEORY":"SGP4","EPOCH":"2021-09-20T18:43:14.121984","MEAN_MOTION":"13.89687503","ECCENTRICITY":"0.00779794","INCLINATION":"46.9676","RA_OF_ASC_NODE":"86.6584","ARG_OF_PERICENTER":"56.6347","MEAN_ANOMALY":"304.1943","EPHEMERIS_TYPE":"0","CLASSIFICATION_TYPE":"U","NORAD_CAT_ID":"270069","ELEMENT_SET_NO":"999","REV_AT_EPOCH":"9216","BSTAR":"-0.00122940850000","MEAN_MOTION_DOT":"-0.00001692","MEAN_MOTION_DDOT":"0.0000000000000","SEMIMAJOR_AXIS":"7307.863","PERIOD":"103.620","APOAPSIS":"986.714","PERIAPSIS":"872.742","OBJECT_TYPE":"TBA","RCS_SIZE":null,"COUNTRY_CODE":null,"LAUNCH_DATE":null,"SITE":null,"DECAY_DATE":null,"FILE":"3121356","GP_ID":"185113058","TLE_LINE0":"0 TBA - TO BE ASSIGNED","TLE_LINE1":"1 T0069U          21263.78002456 -.00001692  00000-0 -12294-2 0  9991","TLE_LINE2":"2 T0069  46.9676  86.6584 0077979  56.6347 304.1943 13.89687503 92164"},{"CCSDS_OMM_VERS":"2.0","COMMENT":"GENERATED VIA SPACE-TRACK.ORG API","CREATION_DATE":"2021-10-02T19:42:11","ORIGINATOR":"18 SPCS","OBJECT_NAME":"TBA - TO BE ASSIGNED","OBJECT_ID":"","CENTER_NAME":"EARTH","REF_FRAME":"TEME","TIME_SYSTEM":"UTC","MEAN_ELEMENT_THEORY":"SGP4","EPOCH":"2021-10-02T03:36:30.549312","MEAN_MOTION":"12.60738677","ECCENTRICITY":"0.08113727","INCLINATION":"73.1520","RA_OF_ASC_NODE":"226.9800","ARG_OF_PERICENTER":"222.6506","MEAN_ANOMALY":"130.8758","EPHEMERIS_TYPE":"0","CLASSIFICATION_TYPE":"U","NORAD_CAT_ID":"270068","ELEMENT_SET_NO":"999","REV_AT_EPOCH":"8511","BSTAR":"-0.00177183980000","MEAN_MOTION_DOT":"-0.00001141","MEAN_MOTION_DDOT":"0.0000000000000","SEMIMAJOR_AXIS":"7798.034","PERIOD":"114.219","APOAPSIS":"2052.610","PERIAPSIS":"787.188","OBJECT_TYPE":"TBA","RCS_SIZE":null,"COUNTRY_CODE":null,"LAUNCH_DATE":null,"SITE":null,"DECAY_DATE":null,"FILE":"3140732","GP_ID":"186004153","TLE_LINE0":"0 TBA - TO BE ASSIGNED","TLE_LINE1":"1 T0068U          21275.15035358 -.00001141  00000-0 -17718-2 0  9996","TLE_LINE2":"2 T0068  73.1520 226.9800 0811373 222.6506 130.8758 12.60738677 85111"},{"CCSDS_OMM_VERS":"2.0","COMMENT":"GENERATED VIA SPACE-TRACK.ORG API","CREATION_DATE":"2021-09-28T18:32:52","ORIGINATOR":"18 SPCS","OBJECT_NAME":"TBA - TO BE ASSIGNED","OBJECT_ID":"","CENTER_NAME":"EARTH","REF_FRAME":"TEME","TIME_SYSTEM":"UTC","MEAN_ELEMENT_THEORY":"SGP4","EPOCH":"2021-09-27T22:30:40.775616","MEAN_MOTION":"12.95675957","ECCENTRICITY":"0.00269504","INCLINATION":"90.2760","RA_OF_ASC_NODE":"333.9897","ARG_OF_PERICENTER":"331.0975","MEAN_ANOMALY":"28.8651","EPHEMERIS_TYPE":"0","CLASSIFICATION_TYPE":"U","NORAD_CAT_ID":"270067","ELEMENT_SET_NO":"999","REV_AT_EPOCH":"8697","BSTAR":"0.00147432120000","MEAN_MOTION_DOT":"0.00000425","MEAN_MOTION_DDOT":"0.0000000000000","SEMIMAJOR_AXIS":"7657.216","PERIOD":"111.139","APOAPSIS":"1299.718","PERIAPSIS":"1258.445","OBJECT_TYPE":"TBA","RCS_SIZE":null,"COUNTRY_CODE":null,"LAUNCH_DATE":null,"SITE":null,"DECAY_DATE":null,"FILE":"3132662","GP_ID":"185705722","TLE_LINE0":"0 TBA - TO BE ASSIGNED","TLE_LINE1":"1 T0067U          21270.93797194  .00000425  00000-0  14743-2 0  9996","TLE_LINE2":"2 T0067  90.2760 333.9897 0026950 331.0975  28.8651 12.95675957 86977"},{"CCSDS_OMM_VERS":"2.0","COMMENT":"GENERATED VIA SPACE-TRACK.ORG API","CREATION_DATE":"2021-10-02T19:42:11","ORIGINATOR":"18 SPCS","OBJECT_NAME":"TBA - TO BE ASSIGNED","OBJECT_ID":"","CENTER_NAME":"EARTH","REF_FRAME":"TEME","TIME_SYSTEM":"UTC","MEAN_ELEMENT_THEORY":"SGP4","EPOCH":"2021-10-01T21:56:34.578240","MEAN_MOTION":"14.60316397","ECCENTRICITY":"0.00103365","INCLINATION":"32.2236","RA_OF_ASC_NODE":"351.7977","ARG_OF_PERICENTER":"298.8722","MEAN_ANOMALY":"61.0886","EPHEMERIS_TYPE":"0","CLASSIFICATION_TYPE":"U","NORAD_CAT_ID":"270066","ELEMENT_SET_NO":"999","REV_AT_EPOCH":"9881","BSTAR":"0.00002734296700","MEAN_MOTION_DOT":"0.00000169","MEAN_MOTION_DDOT":"0.0000000000000","SEMIMAJOR_AXIS":"7070.290","PERIOD":"98.609","APOAPSIS":"699.463","PERIAPSIS":"684.846","OBJECT_TYPE":"TBA","RCS_SIZE":null,"COUNTRY_CODE":null,"LAUNCH_DATE":null,"SITE":null,"DECAY_DATE":null,"FILE":"3140732","GP_ID":"186003864","TLE_LINE0":"0 TBA - TO BE ASSIGNED","TLE_LINE1":"1 T0066U          21274.91428910  .00000169  00000-0  27343-4 0  9991","TLE_LINE2":"2 T0066  32.2236 351.7977 0010336 298.8722  61.0886 14.60316397 98817"},{"CCSDS_OMM_VERS":"2.0","COMMENT":"GENERATED VIA SPACE-TRACK.ORG API","CREATION_DATE":"2021-10-03T04:23:41","ORIGINATOR":"18 SPCS","OBJECT_NAME":"TBA - TO BE ASSIGNED","OBJECT_ID":"","CENTER_NAME":"EARTH","REF_FRAME":"TEME","TIME_SYSTEM":"UTC","MEAN_ELEMENT_THEORY":"SGP4","EPOCH":"2021-10-02T10:33:05.332320","MEAN_MOTION":"12.22784066","ECCENTRICITY":"0.01318480","INCLINATION":"74.0021","RA_OF_ASC_NODE":"185.0984","ARG_OF_PERICENTER":"62.0517","MEAN_ANOMALY":"299.3793","EPHEMERIS_TYPE":"0","CLASSIFICATION_TYPE":"U","NORAD_CAT_ID":"270065","ELEMENT_SET_NO":"999","REV_AT_EPOCH":"8260","BSTAR":"0.00028482458000","MEAN_MOTION_DOT":"0.00000017","MEAN_MOTION_DDOT":"0.0000000000000","SEMIMAJOR_AXIS":"7958.575","PERIOD":"117.764","APOAPSIS":"1685.373","PERIAPSIS":"1475.508","OBJECT_TYPE":"TBA","RCS_SIZE":null,"COUNTRY_CODE":null,"LAUNCH_DATE":null,"SITE":null,"DECAY_DATE":null,"FILE":"3141323","GP_ID":"186041553","TLE_LINE0":"0 TBA - TO BE ASSIGNED","TLE_LINE1":"1 T0065U          21275.43964505  .00000017  00000-0  28482-3 0  9999","TLE_LINE2":"2 T0065  74.0021 185.0984 0131848  62.0517 299.3793 12.22784066 82604"}]